start=new Date('2022-09-09T00:00:00.000Z').valueOf();
sats=[{"MEAN_MOTION_DOT":"0.00008607","GP_ID":"212089895","ARG_OF_PERICENTER":"81.3212","SITE":"AFETR","OBJECT_TYPE":"PAYLOAD","OBJECT_NAME":"STARLINK-1370","MEAN_MOTION":"15.06404235","TIME_SYSTEM":"UTC","LAUNCH_DATE":"2020-06-04","ECCENTRICITY":"0.00014150","SEMIMAJOR_AXIS":"6925.336","INCLINATION":"53.0556","RA_OF_ASC_NODE":"13.5014","ELEMENT_SET_NO":"999","BSTAR":"0.00059595000000","EPHEMERIS_TYPE":"0","CENTER_NAME":"EARTH","CLASSIFICATION_TYPE":"U","FILE":"3564431","RCS_SIZE":"LARGE","MEAN_MOTION_DDOT":"0.0000000000000","DECAY_DATE":null,"COUNTRY_CODE":"US","REV_AT_EPOCH":"12654","OBJECT_ID":"2020-035AT","MEAN_ANOMALY":"278.7937","TLE_LINE2":"2 45698  53.0556  13.5014 0001415  81.3212 278.7937 15.06404235126541","NORAD_CAT_ID":"45698","APOAPSIS":"548.181","PERIOD":"95.592","REF_FRAME":"TEME","PERIAPSIS":"546.221","TLE_LINE1":"1 45698U 20035AT  22251.75107501  .00008607  00000-0  59595-3 0  9997","EPOCH":"2022-09-08T18:01:32.880864","MEAN_ELEMENT_THEORY":"SGP4"},{"APOAPSIS":"548.093","PERIOD":"95.592","TLE_LINE2":"2 45699  53.0553  14.1598 0001261 105.7142 254.3986 15.06397948126518","NORAD_CAT_ID":"45699","OBJECT_ID":"2020-035AU","MEAN_ANOMALY":"254.3986","REV_AT_EPOCH":"12651","COUNTRY_CODE":"US","DECAY_DATE":null,"MEAN_MOTION_DDOT":"0.0000000000000","MEAN_ELEMENT_THEORY":"SGP4","TLE_LINE1":"1 45699U 20035AU  22251.60825650  .00005548  00000-0  39110-3 0  9996","EPOCH":"2022-09-08T14:35:53.361600","PERIAPSIS":"546.347","REF_FRAME":"TEME","ECCENTRICITY":"0.00012610","LAUNCH_DATE":"2020-06-04","TIME_SYSTEM":"UTC","MEAN_MOTION":"15.06397948","SITE":"AFETR","OBJECT_TYPE":"PAYLOAD","ARG_OF_PERICENTER":"105.7142","OBJECT_NAME":"STARLINK-1398","MEAN_MOTION_DOT":"0.00005548","GP_ID":"212090645","RCS_SIZE":"LARGE","FILE":"3564431","CENTER_NAME":"EARTH","CLASSIFICATION_TYPE":"U","ELEMENT_SET_NO":"999","BSTAR":"0.00039110000000","EPHEMERIS_TYPE":"0","INCLINATION":"53.0553","RA_OF_ASC_NODE":"14.1598","SEMIMAJOR_AXIS":"6925.355"},{"OBJECT_NAME":"STARLINK-1400","SITE":"AFETR","OBJECT_TYPE":"PAYLOAD","ARG_OF_PERICENTER":"99.3172","MEAN_MOTION":"15.06396583","GP_ID":"212090387","MEAN_MOTION_DOT":"0.00004687","ECCENTRICITY":"0.00013630","TIME_SYSTEM":"UTC","LAUNCH_DATE":"2020-06-04","RA_OF_ASC_NODE":"14.4566","INCLINATION":"53.0572","ELEMENT_SET_NO":"999","BSTAR":"0.00033339000000","EPHEMERIS_TYPE":"0","SEMIMAJOR_AXIS":"6925.359","FILE":"3564431","RCS_SIZE":"LARGE","CLASSIFICATION_TYPE":"U","CENTER_NAME":"EARTH","COUNTRY_CODE":"US","REV_AT_EPOCH":"12650","MEAN_MOTION_DDOT":"0.0000000000000","DECAY_DATE":null,"NORAD_CAT_ID":"45700","TLE_LINE2":"2 45700  53.0572  14.4566 0001363  99.3172 260.7971 15.06396583126502","PERIOD":"95.592","APOAPSIS":"548.168","OBJECT_ID":"2020-035AV","MEAN_ANOMALY":"260.7971","TLE_LINE1":"1 45700U 20035AV  22251.53822549  .00004687  00000-0  33339-3 0  9995","PERIAPSIS":"546.280","EPOCH":"2022-09-08T12:55:02.682336","REF_FRAME":"TEME","MEAN_ELEMENT_THEORY":"SGP4"},{"SEMIMAJOR_AXIS":"6925.374","BSTAR":"0.00018493000000","ELEMENT_SET_NO":"999","EPHEMERIS_TYPE":"0","INCLINATION":"53.0575","RA_OF_ASC_NODE":"14.3417","CENTER_NAME":"EARTH","CLASSIFICATION_TYPE":"U","RCS_SIZE":"LARGE","FILE":"3564431","GP_ID":"212089146","MEAN_MOTION_DOT":"0.00002473","OBJECT_TYPE":"PAYLOAD","SITE":"AFETR","OBJECT_NAME":"STARLINK-1403","ARG_OF_PERICENTER":"80.1716","MEAN_MOTION":"15.06391571","LAUNCH_DATE":"2020-06-04","TIME_SYSTEM":"UTC","ECCENTRICITY":"0.00014110","REF_FRAME":"TEME","TLE_LINE1":"1 45701U 20035AW  22251.56771578  .00002473  00000-0  18493-3 0  9999","PERIAPSIS":"546.262","EPOCH":"2022-09-08T13:37:30.643392","MEAN_ELEMENT_THEORY":"SGP4","MEAN_MOTION_DDOT":"0.0000000000000","DECAY_DATE":null,"REV_AT_EPOCH":"12650","COUNTRY_CODE":"US","MEAN_ANOMALY":"279.9433","OBJECT_ID":"2020-035AW","APOAPSIS":"548.217","PERIOD":"95.593","TLE_LINE2":"2 45701  53.0575  14.3417 0001411  80.1716 279.9433 15.06391571126503","NORAD_CAT_ID":"45701"},{"SITE":"AFETR","OBJECT_TYPE":"PAYLOAD","MEAN_MOTION":"15.06399138","ARG_OF_PERICENTER":"95.9463","OBJECT_NAME":"STARLINK-1405","MEAN_MOTION_DOT":"0.00003803","GP_ID":"212089395","ECCENTRICITY":"0.00013970","LAUNCH_DATE":"2020-06-04","TIME_SYSTEM":"UTC","BSTAR":"0.00027409000000","EPHEMERIS_TYPE":"0","ELEMENT_SET_NO":"999","INCLINATION":"53.0558","RA_OF_ASC_NODE":"14.1132","SEMIMAJOR_AXIS":"6925.351","RCS_SIZE":"LARGE","FILE":"3564431","CENTER_NAME":"EARTH","CLASSIFICATION_TYPE":"U","REV_AT_EPOCH":"12651","COUNTRY_CODE":"US","DECAY_DATE":null,"MEAN_MOTION_DDOT":"0.0000000000000","APOAPSIS":"548.184","PERIOD":"95.592","TLE_LINE2":"2 45702  53.0558  14.1132 0001397  95.9463 264.1686 15.06399138126517","NORAD_CAT_ID":"45702","MEAN_ANOMALY":"264.1686","OBJECT_ID":"2020-035AX","EPOCH":"2022-09-08T14:46:31.304640","TLE_LINE1":"1 45702U 20035AX  22251.61564010  .00003803  00000-0  27409-3 0  9992","PERIAPSIS":"546.249","REF_FRAME":"TEME","MEAN_ELEMENT_THEORY":"SGP4"},{"MEAN_MOTION_DOT":"0.00004617","GP_ID":"212090145","SITE":"AFETR","MEAN_MOTION":"15.06398339","OBJECT_TYPE":"PAYLOAD","OBJECT_NAME":"STARLINK-1407","ARG_OF_PERICENTER":"98.1083","TIME_SYSTEM":"UTC","LAUNCH_DATE":"2020-06-04","ECCENTRICITY":"0.00014100","SEMIMAJOR_AXIS":"6925.354","RA_OF_ASC_NODE":"13.5506","INCLINATION":"53.0546","BSTAR":"0.00032868000000","ELEMENT_SET_NO":"999","EPHEMERIS_TYPE":"0","CLASSIFICATION_TYPE":"U","CENTER_NAME":"EARTH","FILE":"3564431","RCS_SIZE":"LARGE","DECAY_DATE":null,"MEAN_MOTION_DDOT":"0.0000000000000","COUNTRY_CODE":"US","REV_AT_EPOCH":"12653","OBJECT_ID":"2020-035AY","MEAN_ANOMALY":"262.0066","NORAD_CAT_ID":"45703","TLE_LINE2":"2 45703  53.0546  13.5506 0001410  98.1083 262.0066 15.06398339126535","PERIOD":"95.592","APOAPSIS":"548.195","REF_FRAME":"TEME","PERIAPSIS":"546.242","TLE_LINE1":"1 45703U 20035AY  22251.74464142  .00004617  00000-0  32868-3 0  9991","EPOCH":"2022-09-08T17:52:17.018688","MEAN_ELEMENT_THEORY":"SGP4"},{"SITE":"AFETR","ARG_OF_PERICENTER":"88.2562","OBJECT_TYPE":"PAYLOAD","OBJECT_NAME":"STARLINK-1409","MEAN_MOTION":"15.06398960","MEAN_MOTION_DOT":"0.00002219","GP_ID":"212062952","ECCENTRICITY":"0.00013490","TIME_SYSTEM":"UTC","LAUNCH_DATE":"2020-06-04","INCLINATION":"53.0563","RA_OF_ASC_NODE":"43.1376","BSTAR":"0.00016784000000","EPHEMERIS_TYPE":"0","ELEMENT_SET_NO":"999","SEMIMAJOR_AXIS":"6925.352","FILE":"3564107","RCS_SIZE":"LARGE","CENTER_NAME":"EARTH","CLASSIFICATION_TYPE":"U","COUNTRY_CODE":"US","REV_AT_EPOCH":"12572","MEAN_MOTION_DDOT":"0.0000000000000","DECAY_DATE":null,"TLE_LINE2":"2 45704  53.0563  43.1376 0001349  88.2562 271.8582 15.06398960125723","NORAD_CAT_ID":"45704","APOAPSIS":"548.151","PERIOD":"95.592","OBJECT_ID":"2020-035AZ","MEAN_ANOMALY":"271.8582","PERIAPSIS":"546.283","TLE_LINE1":"1 45704U 20035AZ  22251.83676284  .00002219  00000-0  16784-3 0  9999","EPOCH":"2022-09-08T20:04:56.309376","REF_FRAME":"TEME","MEAN_ELEMENT_THEORY":"SGP4"},{"MEAN_ELEMENT_THEORY":"SGP4","REF_FRAME":"TEME","EPOCH":"2022-09-08T17:32:23.450208","TLE_LINE1":"1 45705U 20035BA  22251.73082697  .00001699  00000-0  13298-3 0  9996","PERIAPSIS":"546.423","MEAN_ANOMALY":"270.7824","OBJECT_ID":"2020-035BA","APOAPSIS":"548.105","PERIOD":"95.593","TLE_LINE2":"2 45705  53.0554  43.5877 0001214  89.3304 270.7824 15.06383494126107","NORAD_CAT_ID":"45705","MEAN_MOTION_DDOT":"0.0000000000000","DECAY_DATE":null,"REV_AT_EPOCH":"12610","COUNTRY_CODE":"US","CENTER_NAME":"EARTH","CLASSIFICATION_TYPE":"U","RCS_SIZE":"LARGE","FILE":"3564431","SEMIMAJOR_AXIS":"6925.399","ELEMENT_SET_NO":"999","EPHEMERIS_TYPE":"0","BSTAR":"0.00013298000000","INCLINATION":"53.0554","RA_OF_ASC_NODE":"43.5877","LAUNCH_DATE":"2020-06-04","TIME_SYSTEM":"UTC","ECCENTRICITY":"0.00012140","GP_ID":"212089646","MEAN_MOTION_DOT":"0.00001699","SITE":"AFETR","OBJECT_NAME":"STARLINK-1410","OBJECT_TYPE":"PAYLOAD","MEAN_MOTION":"15.06383494","ARG_OF_PERICENTER":"89.3304"},{"MEAN_ELEMENT_THEORY":"SGP4","REF_FRAME":"TEME","TLE_LINE1":"1 45706U 20035BB  22251.72251041  .00003390  00000-0  24636-3 0  9995","PERIAPSIS":"546.293","EPOCH":"2022-09-08T17:20:24.899424","MEAN_ANOMALY":"273.1178","OBJECT_ID":"2020-035BB","APOAPSIS":"548.138","PERIOD":"95.592","TLE_LINE2":"2 45706  53.0564  13.6283 0001332  86.9964 273.1178 15.06399291126521","NORAD_CAT_ID":"45706","MEAN_MOTION_DDOT":"0.0000000000000","DECAY_DATE":null,"REV_AT_EPOCH":"12652","COUNTRY_CODE":"US","CENTER_NAME":"EARTH","CLASSIFICATION_TYPE":"U","RCS_SIZE":"LARGE","FILE":"3564431","SEMIMAJOR_AXIS":"6925.351","ELEMENT_SET_NO":"999","BSTAR":"0.00024636000000","EPHEMERIS_TYPE":"0","INCLINATION":"53.0564","RA_OF_ASC_NODE":"13.6283","LAUNCH_DATE":"2020-06-04","TIME_SYSTEM":"UTC","ECCENTRICITY":"0.00013320","MEAN_MOTION_DOT":"0.00003390","GP_ID":"212089896","OBJECT_TYPE":"PAYLOAD","SITE":"AFETR","MEAN_MOTION":"15.06399291","OBJECT_NAME":"STARLINK-1411","ARG_OF_PERICENTER":"86.9964"},{"GP_ID":"212090646","MEAN_MOTION_DOT":"0.00002659","OBJECT_TYPE":"PAYLOAD","SITE":"AFETR","OBJECT_NAME":"STARLINK-1412","MEAN_MOTION":"15.06398601","ARG_OF_PERICENTER":"102.1233","LAUNCH_DATE":"2020-06-04","TIME_SYSTEM":"UTC","ECCENTRICITY":"0.00014690","SEMIMAJOR_AXIS":"6925.353","ELEMENT_SET_NO":"999","EPHEMERIS_TYPE":"0","BSTAR":"0.00019732000000","RA_OF_ASC_NODE":"13.6619","INCLINATION":"53.0557","CLASSIFICATION_TYPE":"U","CENTER_NAME":"EARTH","RCS_SIZE":"LARGE","FILE":"3564431","MEAN_MOTION_DDOT":"0.0000000000000","DECAY_DATE":null,"REV_AT_EPOCH":"12653","COUNTRY_CODE":"US","MEAN_ANOMALY":"257.9921","OBJECT_ID":"2020-035BC","PERIOD":"95.592","APOAPSIS":"548.235","NORAD_CAT_ID":"45707","TLE_LINE2":"2 45707  53.0557  13.6619 0001469 102.1233 257.9921 15.06398601126539","REF_FRAME":"TEME","TLE_LINE1":"1 45707U 20035BC  22251.71883075  .00002659  00000-0  19732-3 0  9991","EPOCH":"2022-09-08T17:15:06.976800","PERIAPSIS":"546.201","MEAN_ELEMENT_THEORY":"SGP4"}];
